$$SOE
2459580.500000000, A.D. 2022-Jan-01 00:00:00.0000, -4.130043160430745E+08, -1.134645849900746E+08, 8.718317008474283E+07,
2459587.500000000, A.D. 2022-Jan-08 00:00:00.0000, -4.103976600762510E+08, -1.238123270038074E+08, 8.775915667472720E+07,
2459594.500000000, A.D. 2022-Jan-15 00:00:00.0000, -4.075532429982526E+08, -1.340883215652407E+08, 8.828429028959180E+07,
2459601.500000000, A.D. 2022-Jan-22 00:00:00.0000, -4.044734762299423E+08, -1.442868677695244E+08, 8.875843245830885E+07,
2459608.500000000, A.D. 2022-Jan-29 00:00:00.0000, -4.011609022910193E+08, -1.544023479786916E+08, 8.918147766145004E+07,
2459615.500000000, A.D. 2022-Feb-05 00:00:00.0000, -3.976181934545203E+08, -1.644292315717505E+08, 8.955335314088662E+07,
2459622.500000000, A.D. 2022-Feb-12 00:00:00.0000, -3.938481481784061E+08, -1.743620796062434E+08, 8.987401839970385E+07,
2459629.500000000, A.D. 2022-Feb-19 00:00:00.0000, -3.898536866466653E+08, -1.841955480214169E+08, 9.014346470895392E+07,
2459636.500000000, A.D. 2022-Feb-26 00:00:00.0000, -3.856378467374996E+08, -1.939243901060531E+08, 9.036171468331990E+07,
2459643.500000000, A.D. 2022-Mar-05 00:00:00.0000, -3.812037802660691E+08, -2.035434588490111E+08, 9.052882186163437E+07,
2459650.500000000, A.D. 2022-Mar-12 00:00:00.0000, -3.765547492870095E+08, -2.130477092391044E+08, 9.064487026756759E+07,
2459657.500000000, A.D. 2022-Mar-19 00:00:00.0000, -3.716941223915797E+08, -2.224322004868251E+08, 9.070997394690883E+07,
2459664.500000000, A.D. 2022-Mar-26 00:00:00.0000, -3.666253709817226E+08, -2.316920981752915E+08, 9.072427647927774E+07,
2459671.500000000, A.D. 2022-Apr-02 00:00:00.0000, -3.613520654579985E+08, -2.408226763993316E+08, 9.068795045417468E+07,
2459678.500000000, A.D. 2022-Apr-09 00:00:00.0000, -3.558778710553086E+08, -2.498193198919377E+08, 9.060119688820577E+07,
2459685.500000000, A.D. 2022-Apr-16 00:00:00.0000, -3.502065429762412E+08, -2.586775254876771E+08, 9.046424460596436E+07,
2459692.500000000, A.D. 2022-Apr-23 00:00:00.0000, -3.443419220974116E+08, -2.673929018413274E+08, 9.027734979106367E+07,
2459699.500000000, A.D. 2022-Apr-30 00:00:00.0000, -3.382879331242603E+08, -2.759611696495275E+08, 9.004079569641188E+07,
2459706.500000000, A.D. 2022-May-07 00:00:00.0000, -3.320485821369403E+08, -2.843781643525760E+08, 8.975489207272337E+07,
2459713.500000000, A.D. 2022-May-14 00:00:00.0000, -3.256279521430494E+08, -2.926398382813429E+08, 8.941997443738052E+07,
2459720.500000000, A.D. 2022-May-21 00:00:00.0000, -3.190301986717913E+08, -3.007422614930475E+08, 8.903640343275985E+07,
2459727.500000000, A.D. 2022-May-28 00:00:00.0000, -3.122595458908699E+08, -3.086816222579073E+08, 8.860456424023047E+07,
2459734.500000000, A.D. 2022-Jun-04 00:00:00.0000, -3.053202829717641E+08, -3.164542275139571E+08, 8.812486599982280E+07,
2459741.500000000, A.D. 2022-Jun-11 00:00:00.0000, -2.982167605622673E+08, -3.240565032928464E+08, 8.759774122391194E+07,
2459748.500000000, A.D. 2022-Jun-18 00:00:00.0000, -2.909533873315891E+08, -3.314849951079127E+08, 8.702364520403071E+07,
2459755.500000000, A.D. 2022-Jun-25 00:00:00.0000, -2.835346265623069E+08, -3.387363683416547E+08, 8.640305540678832E+07,
2459762.500000000, A.D. 2022-Jul-02 00:00:00.0000, -2.759649926582635E+08, -3.458074087019597E+08, 8.573647084235533E+07,
2459769.500000000, A.D. 2022-Jul-09 00:00:00.0000, -2.682490471807834E+08, -3.526950225736730E+08, 8.502441138514036E+07,
2459776.500000000, A.D. 2022-Jul-16 00:00:00.0000, -2.603913944705495E+08, -3.593962361860914E+08, 8.426741714101470E+07,
2459783.500000000, A.D. 2022-Jul-23 00:00:00.0000, -2.523966790548944E+08, -3.659081935218728E+08, 8.346604806964906E+07,
2459790.500000000, A.D. 2022-Jul-30 00:00:00.0000, -2.442695847572573E+08, -3.722281563253942E+08, 8.262088358080322E+07,
2459797.500000000, A.D. 2022-Aug-06 00:00:00.0000, -2.360148319117492E+08, -3.783535055677246E+08, 8.173252182862961E+07,
2459804.500000000, A.D. 2022-Aug-13 00:00:00.0000, -2.276371735081607E+08, -3.842817416182779E+08, 8.080157900585516E+07,
2459811.500000000, A.D. 2022-Aug-20 00:00:00.0000, -2.191413918381362E+08, -3.900104836298704E+08, 7.982868874146162E+07,
2459818.500000000, A.D. 2022-Aug-27 00:00:00.0000, -2.105322955749483E+08, -3.955374688668854E+08, 7.881450153673616E+07,
2459825.500000000, A.D. 2022-Sep-03 00:00:00.0000, -2.018147170390472E+08, -4.008605520906298E+08, 7.775968420833497E+07,
2459832.500000000, A.D. 2022-Sep-10 00:00:00.0000, -1.929935095593362E+08, -4.059777049820919E+08, 7.666491933259174E+07,
2459839.500000000, A.D. 2022-Sep-17 00:00:00.0000, -1.840735449010696E+08, -4.108870156082074E+08, 7.553090468889390E+07,
2459846.500000000, A.D. 2022-Sep-24 00:00:00.0000, -1.750597107003970E+08, -4.155866879866635E+08, 7.435835269303423E+07,
2459853.500000000, A.D. 2022-Oct-01 00:00:00.0000, -1.659569076658936E+08, -4.200750417753882E+08, 7.314798979712115E+07,
2459860.500000000, A.D. 2022-Oct-08 00:00:00.0000, -1.567700461398942E+08, -4.243505115682784E+08, 7.190055586159939E+07,
2459867.500000000, A.D. 2022-Oct-15 00:00:00.0000, -1.475040429513415E+08, -4.284116446011829E+08, 7.061680368289353E+07,
2459874.500000000, A.D. 2022-Oct-22 00:00:00.0000, -1.381638207409820E+08, -4.322570985548028E+08, 6.929749873896091E+07,
2459881.500000000, A.D. 2022-Oct-29 00:00:00.0000, -1.287543072600125E+08, -4.358856420516700E+08, 6.794341871163684E+07,
2459888.500000000, A.D. 2022-Nov-05 00:00:00.0000, -1.192804325427188E+08, -4.392961551106616E+08, 6.655535281759690E+07,
2459895.500000000, A.D. 2022-Nov-12 00:00:00.0000, -1.097471259184927E+08, -4.424876282952510E+08, 6.513410123197220E+07,
2459902.500000000, A.D. 2022-Nov-19 00:00:00.0000, -1.001593135828713E+08, -4.454591615114076E+08, 6.368047459242576E+07,
2459909.500000000, A.D. 2022-Nov-26 00:00:00.0000, -9.052191646484087E+07, -4.482099628531564E+08, 6.219529352656691E+07,
2459916.500000000, A.D. 2022-Dec-03 00:00:00.0000, -8.083984822258478E+07, -4.507393475077409E+08, 6.067938818575554E+07,
2459923.500000000, A.D. 2022-Dec-10 00:00:00.0000, -7.111801331923358E+07, -4.530467367031294E+08, 5.913359778212500E+07,
2459930.500000000, A.D. 2022-Dec-17 00:00:00.0000, -6.136130515091545E+07, -4.551316567261077E+08, 5.755877012462087E+07,
2459937.500000000, A.D. 2022-Dec-24 00:00:00.0000, -5.157460411579379E+07, -4.569937380813074E+08, 5.595576113929163E+07,
2459944.500000000, A.D. 2022-Dec-31 00:00:00.0000, -4.176277526577795E+07, -4.586327146881198E+08, 5.432543435057735E+07,
2459951.500000000, A.D. 2023-Jan-07 00:00:00.0000, -3.193066541821107E+07, -4.600484221565379E+08, 5.266866039149749E+07,
2459958.500000000, A.D. 2023-Jan-14 00:00:00.0000, -2.208310169448639E+07, -4.612407946468896E+08, 5.098631676380903E+07,
2459965.500000000, A.D. 2023-Jan-21 00:00:00.0000, -1.222489212925282E+07, -4.622098634866452E+08, 4.927928764764647E+07,
2459972.500000000, A.D. 2023-Jan-28 00:00:00.0000, -2.360824680240413E+06, -4.629557577411615E+08, 4.754846340800816E+07,
2459979.500000000, A.D. 2023-Feb-04 00:00:00.0000, 7.504335154381397E+06, -4.634787037129248E+08, 4.579474006473437E+07,
2459986.500000000, A.D. 2023-Feb-11 00:00:00.0000, 1.736584631717512E+07, -4.637790235646247E+08, 4.401901887487894E+07,
2459993.500000000, A.D. 2023-Feb-18 00:00:00.0000, 2.721899370928003E+07, -4.638571338903528E+08, 4.222220596594766E+07,
2460000.500000000, A.D. 2023-Feb-25 00:00:00.0000, 3.705908950923663E+07, -4.637135443975608E+08, 4.040521198258993E+07,
2460007.500000000, A.D. 2023-Mar-04 00:00:00.0000, 4.688147439664638E+07, -4.633488566815352E+08, 3.856895173877627E+07,
2460014.500000000, A.D. 2023-Mar-11 00:00:00.0000, 5.668151871126546E+07, -4.627637630923854E+08, 3.671434387276673E+07,
2460021.500000000, A.D. 2023-Mar-18 00:00:00.0000, 6.645462359682809E+07, -4.619590457448381E+08, 3.484231049651900E+07,
2460028.500000000, A.D. 2023-Mar-25 00:00:00.0000, 7.619622233502765E+07, -4.609355757193480E+08, 3.295377681719819E+07,
2460035.500000000, A.D. 2023-Apr-01 00:00:00.0000, 8.590178229589435E+07, -4.596943120626037E+08, 3.104967072421473E+07,
2460042.500000000, A.D. 2023-Apr-08 00:00:00.0000, 9.556680689043765E+07, -4.582362993636116E+08, 2.913092249845710E+07,
2460049.500000000, A.D. 2023-Apr-15 00:00:00.0000, 1.051868351896088E+08, -4.565626650115819E+08, 2.719846476754442E+07,
2460056.500000000, A.D. 2023-Apr-22 00:00:00.0000, 1.147574410204993E+08, -4.546746191869444E+08, 2.525323229141244E+07,
2460063.500000000, A.D. 2023-Apr-29 00:00:00.0000, 1.242742342771905E+08, -4.525734553331895E+08, 2.329616151129737E+07,
2460070.500000000, A.D. 2023-May-06 00:00:00.0000, 1.337328626879442E+08, -4.502605493297337E+08, 2.132819016904256E+07,
2460077.500000000, A.D. 2023-May-13 00:00:00.0000, 1.431290130634394E+08, -4.477373582602252E+08, 1.935025701306969E+07,
2460084.500000000, A.D. 2023-May-20 00:00:00.0000, 1.524584122616384E+08, -4.450054192678682E+08, 1.736330152902272E+07,
2460091.500000000, A.D. 2023-May-27 00:00:00.0000, 1.617168280641645E+08, -4.420663485275455E+08, 1.536826367446372E+07,
2460098.500000000, A.D. 2023-Jun-03 00:00:00.0000, 1.709000700231090E+08, -4.389218403088740E+08, 1.336608361390522E+07,
2460105.500000000, A.D. 2023-Jun-10 00:00:00.0000, 1.800039903035275E+08, -4.355736661438158E+08, 1.135770145026088E+07,
2460112.500000000, A.D. 2023-Jun-17 00:00:00.0000, 1.890244846125488E+08, -4.320236741589171E+08, 9.344056939059407E+06,
2460119.500000000, A.D. 2023-Jun-24 00:00:00.0000, 1.979574935371969E+08, -4.282737885172066E+08, 7.326089160165399E+06,
2460126.500000000, A.D. 2023-Jul-01 00:00:00.0000, 2.067990045458069E+08, -4.243260081430045E+08, 5.304736191113234E+06,
2460133.500000000, A.D. 2023-Jul-08 00:00:00.0000, 2.155450529798251E+08, -4.201824039087514E+08, 3.280935002392322E+06,
2460140.500000000, A.D. 2023-Jul-15 00:00:00.0000, 2.241917207591811E+08, -4.158451171132871E+08, 1.255621460024118E+06,
2460147.500000000, A.D. 2023-Jul-22 00:00:00.0000, 2.327351363229045E+08, -4.113163602845103E+08, -7.702699726148844E+05,
$$EOE